start=new Date('2022-06-24T00:00:00.000Z').valueOf();
sats=[{"TIME_SYSTEM":"UTC","ECCENTRICITY":"0.00013680","NORAD_CAT_ID":"46042","SEMIMAJOR_AXIS":"6925.371","REF_FRAME":"TEME","FILE":"3500664","BSTAR":"0.00004435500000","REV_AT_EPOCH":"10412","CLASSIFICATION_TYPE":"U","COUNTRY_CODE":"US","PERIAPSIS":"546.288","MEAN_MOTION_DDOT":"0.0000000000000","APOAPSIS":"548.183","MEAN_ANOMALY":"300.9659","OBJECT_TYPE":"PAYLOAD","MEAN_MOTION_DOT":"0.00000379","MEAN_ELEMENT_THEORY":"SGP4","EPOCH":"2022-06-23T11:56:22.817184","RCS_SIZE":"LARGE","INCLINATION":"53.0543","PERIOD":"95.593","RA_OF_ASC_NODE":"90.3071","TLE_LINE2":"2 46042  53.0543  90.3071 0001368  59.1465 300.9659 15.06392839104122","DECAY_DATE":null,"OBJECT_NAME":"STARLINK-1581","TLE_LINE1":"1 46042U 20055R   22174.49748631  .00000379  00000-0  44355-4 0  9990","OBJECT_ID":"2020-055R","GP_ID":"206691122","ARG_OF_PERICENTER":"59.1465","MEAN_MOTION":"15.06392839","SITE":"AFETR","LAUNCH_DATE":"2020-08-07","ELEMENT_SET_NO":"999","EPHEMERIS_TYPE":"0","CENTER_NAME":"EARTH"},{"CLASSIFICATION_TYPE":"U","COUNTRY_CODE":"US","FILE":"3500539","REV_AT_EPOCH":"10462","BSTAR":"0.00002211500000","MEAN_ANOMALY":"292.7196","OBJECT_TYPE":"PAYLOAD","APOAPSIS":"548.434","PERIAPSIS":"546.012","MEAN_MOTION_DDOT":"0.0000000000000","ECCENTRICITY":"0.00017490","NORAD_CAT_ID":"46043","SEMIMAJOR_AXIS":"6925.358","REF_FRAME":"TEME","TIME_SYSTEM":"UTC","DECAY_DATE":null,"TLE_LINE1":"1 46043U 20055S   22174.49011727  .00000048  00000-0  22115-4 0  9993","OBJECT_NAME":"STARLINK-1582","TLE_LINE2":"2 46043  53.0552  90.3550 0001749  67.3978 292.7196 15.06396933104626","LAUNCH_DATE":"2020-08-07","CENTER_NAME":"EARTH","EPHEMERIS_TYPE":"0","ELEMENT_SET_NO":"999","ARG_OF_PERICENTER":"67.3978","GP_ID":"206682741","OBJECT_ID":"2020-055S","MEAN_MOTION":"15.06396933","SITE":"AFETR","MEAN_MOTION_DOT":"0.00000048","PERIOD":"95.592","INCLINATION":"53.0552","RA_OF_ASC_NODE":"90.3550","MEAN_ELEMENT_THEORY":"SGP4","EPOCH":"2022-06-23T11:45:46.132128","RCS_SIZE":"LARGE"},{"TIME_SYSTEM":"UTC","SEMIMAJOR_AXIS":"6925.346","REF_FRAME":"TEME","NORAD_CAT_ID":"46044","ECCENTRICITY":"0.00011200","REV_AT_EPOCH":"10463","BSTAR":"0.00006435200000","FILE":"3500539","COUNTRY_CODE":"US","CLASSIFICATION_TYPE":"U","APOAPSIS":"547.987","PERIAPSIS":"546.436","MEAN_MOTION_DDOT":"0.0000000000000","OBJECT_TYPE":"PAYLOAD","MEAN_ANOMALY":"289.8849","MEAN_MOTION_DOT":"0.00000677","EPOCH":"2022-06-23T12:05:37.640832","RCS_SIZE":"LARGE","MEAN_ELEMENT_THEORY":"SGP4","RA_OF_ASC_NODE":"90.2759","PERIOD":"95.592","INCLINATION":"53.0549","TLE_LINE2":"2 46044  53.0549  90.2759 0001120  70.2260 289.8849 15.06400678104638","TLE_LINE1":"1 46044U 20055T   22174.50390788  .00000677  00000-0  64352-4 0  9990","OBJECT_NAME":"STARLINK-1584","DECAY_DATE":null,"SITE":"AFETR","MEAN_MOTION":"15.06400678","GP_ID":"206682993","OBJECT_ID":"2020-055T","ARG_OF_PERICENTER":"70.2260","EPHEMERIS_TYPE":"0","CENTER_NAME":"EARTH","ELEMENT_SET_NO":"999","LAUNCH_DATE":"2020-08-07"},{"MEAN_MOTION_DOT":"0.00000298","INCLINATION":"53.0558","PERIOD":"95.592","RA_OF_ASC_NODE":"92.3152","MEAN_ELEMENT_THEORY":"SGP4","EPOCH":"2022-06-23T01:14:08.416320","RCS_SIZE":"LARGE","DECAY_DATE":null,"OBJECT_NAME":"STARLINK-1591","TLE_LINE1":"1 46045U 20055U   22174.05148630  .00000298  00000-0  38924-4 0  9993","TLE_LINE2":"2 46045  53.0558  92.3152 0001868  64.4433 295.6749 15.06397094104546","LAUNCH_DATE":"2020-08-07","ELEMENT_SET_NO":"999","EPHEMERIS_TYPE":"0","CENTER_NAME":"EARTH","ARG_OF_PERICENTER":"64.4433","GP_ID":"206683743","OBJECT_ID":"2020-055U","SITE":"AFETR","MEAN_MOTION":"15.06397094","ECCENTRICITY":"0.00018680","NORAD_CAT_ID":"46045","REF_FRAME":"TEME","SEMIMAJOR_AXIS":"6925.357","TIME_SYSTEM":"UTC","CLASSIFICATION_TYPE":"U","COUNTRY_CODE":"US","FILE":"3500539","BSTAR":"0.00003892400000","REV_AT_EPOCH":"10454","MEAN_ANOMALY":"295.6749","OBJECT_TYPE":"PAYLOAD","MEAN_MOTION_DDOT":"0.0000000000000","PERIAPSIS":"545.929","APOAPSIS":"548.516"},{"PERIOD":"90.839","INCLINATION":"53.0472","RA_OF_ASC_NODE":"331.0922","MEAN_ELEMENT_THEORY":"SGP4","EPOCH":"2022-06-23T17:06:55.792800","RCS_SIZE":"LARGE","MEAN_MOTION_DOT":"0.00184183","LAUNCH_DATE":"2020-08-07","CENTER_NAME":"EARTH","EPHEMERIS_TYPE":"0","ELEMENT_SET_NO":"999","OBJECT_ID":"2020-055V","GP_ID":"206693773","ARG_OF_PERICENTER":"259.9138","SITE":"AFETR","MEAN_MOTION":"15.85227112","DECAY_DATE":null,"TLE_LINE1":"1 46046U 20055V   22174.71314575  .00184183  00000-0  74679-3 0  9992","OBJECT_NAME":"STARLINK-1514","TLE_LINE2":"2 46046  53.0472 331.0922 0004221 259.9138 100.1409 15.85227112105813","NORAD_CAT_ID":"46046","ECCENTRICITY":"0.00042210","REF_FRAME":"TEME","SEMIMAJOR_AXIS":"6693.822","TIME_SYSTEM":"UTC","OBJECT_TYPE":"PAYLOAD","MEAN_ANOMALY":"100.1409","APOAPSIS":"318.513","PERIAPSIS":"312.862","MEAN_MOTION_DDOT":"0.0000000000000","CLASSIFICATION_TYPE":"U","COUNTRY_CODE":"US","FILE":"3500782","REV_AT_EPOCH":"10581","BSTAR":"0.00074679000000"},{"MEAN_MOTION_DOT":"-0.00000087","INCLINATION":"53.0545","PERIOD":"95.592","RA_OF_ASC_NODE":"82.5222","MEAN_ELEMENT_THEORY":"SGP4","RCS_SIZE":"LARGE","EPOCH":"2022-06-23T00:06:27.993888","DECAY_DATE":null,"OBJECT_NAME":"STARLINK-1524","TLE_LINE1":"1 46047U 20055W   22174.00449067 -.00000087  00000-0  13041-4 0  9998","TLE_LINE2":"2 46047  53.0545  82.5222 0001393  70.0602 290.0537 15.06402066104693","LAUNCH_DATE":"2020-08-07","ELEMENT_SET_NO":"999","CENTER_NAME":"EARTH","EPHEMERIS_TYPE":"0","OBJECT_ID":"2020-055W","GP_ID":"206682242","ARG_OF_PERICENTER":"70.0602","SITE":"AFETR","MEAN_MOTION":"15.06402066","ECCENTRICITY":"0.00013930","NORAD_CAT_ID":"46047","REF_FRAME":"TEME","SEMIMAJOR_AXIS":"6925.342","TIME_SYSTEM":"UTC","CLASSIFICATION_TYPE":"U","COUNTRY_CODE":"US","FILE":"3500539","BSTAR":"0.00001304100000","REV_AT_EPOCH":"10469","OBJECT_TYPE":"PAYLOAD","MEAN_ANOMALY":"290.0537","PERIAPSIS":"546.243","MEAN_MOTION_DDOT":"0.0000000000000","APOAPSIS":"548.172"},{"CLASSIFICATION_TYPE":"U","COUNTRY_CODE":"US","FILE":"3500783","BSTAR":"0.00010275000000","REV_AT_EPOCH":"10425","OBJECT_TYPE":"PAYLOAD","MEAN_ANOMALY":"289.4329","PERIAPSIS":"546.118","MEAN_MOTION_DDOT":"0.0000000000000","APOAPSIS":"548.299","ECCENTRICITY":"0.00015750","NORAD_CAT_ID":"46048","SEMIMAJOR_AXIS":"6925.344","REF_FRAME":"TEME","TIME_SYSTEM":"UTC","DECAY_DATE":null,"OBJECT_NAME":"STARLINK-1527","TLE_LINE1":"1 46048U 20055X   22174.46522981  .00001249  00000-0  10275-3 0  9991","TLE_LINE2":"2 46048  53.0569  80.4706 0001575  70.6830 289.4329 15.06401625104258","LAUNCH_DATE":"2020-08-07","ELEMENT_SET_NO":"999","EPHEMERIS_TYPE":"0","CENTER_NAME":"EARTH","OBJECT_ID":"2020-055X","GP_ID":"206693781","ARG_OF_PERICENTER":"70.6830","SITE":"AFETR","MEAN_MOTION":"15.06401625","MEAN_MOTION_DOT":"0.00001249","INCLINATION":"53.0569","PERIOD":"95.592","RA_OF_ASC_NODE":"80.4706","MEAN_ELEMENT_THEORY":"SGP4","RCS_SIZE":"LARGE","EPOCH":"2022-06-23T11:09:55.855584"},{"TIME_SYSTEM":"UTC","ECCENTRICITY":"0.00017120","NORAD_CAT_ID":"46049","SEMIMAJOR_AXIS":"6925.368","REF_FRAME":"TEME","FILE":"3500539","BSTAR":"0.00006999100000","REV_AT_EPOCH":"10477","CLASSIFICATION_TYPE":"U","COUNTRY_CODE":"US","PERIAPSIS":"546.047","MEAN_MOTION_DDOT":"0.0000000000000","APOAPSIS":"548.418","OBJECT_TYPE":"PAYLOAD","MEAN_ANOMALY":"298.4806","MEAN_MOTION_DOT":"0.00000761","MEAN_ELEMENT_THEORY":"SGP4","RCS_SIZE":"LARGE","EPOCH":"2022-06-23T11:04:38.460864","INCLINATION":"53.0560","PERIOD":"95.593","RA_OF_ASC_NODE":"80.4829","TLE_LINE2":"2 46049  53.0560  80.4829 0001712  61.6356 298.4806 15.06393754104772","DECAY_DATE":null,"OBJECT_NAME":"STARLINK-1530","TLE_LINE1":"1 46049U 20055Y   22174.46155626  .00000761  00000-0  69991-4 0  9998","OBJECT_ID":"2020-055Y","GP_ID":"206683244","ARG_OF_PERICENTER":"61.6356","MEAN_MOTION":"15.06393754","SITE":"AFETR","LAUNCH_DATE":"2020-08-07","ELEMENT_SET_NO":"999","CENTER_NAME":"EARTH","EPHEMERIS_TYPE":"0"},{"FILE":"3500623","REV_AT_EPOCH":"10425","BSTAR":"-0.00004486800000","CLASSIFICATION_TYPE":"U","COUNTRY_CODE":"US","APOAPSIS":"548.299","MEAN_MOTION_DDOT":"0.0000000000000","PERIAPSIS":"546.220","OBJECT_TYPE":"PAYLOAD","MEAN_ANOMALY":"299.1214","TIME_SYSTEM":"UTC","ECCENTRICITY":"0.00015010","NORAD_CAT_ID":"46051","REF_FRAME":"TEME","SEMIMAJOR_AXIS":"6925.394","TLE_LINE2":"2 46051  53.0545  80.6043 0001501  60.9925 299.1214 15.06385057104259","DECAY_DATE":null,"TLE_LINE1":"1 46051U 20055AA  22174.43206016 -.00000949  00000-0 -44868-4 0  9994","OBJECT_NAME":"STARLINK-1540","OBJECT_ID":"2020-055AA","GP_ID":"206690244","ARG_OF_PERICENTER":"60.9925","SITE":"AFETR","MEAN_MOTION":"15.06385057","LAUNCH_DATE":"2020-08-07","EPHEMERIS_TYPE":"0","CENTER_NAME":"EARTH","ELEMENT_SET_NO":"999","MEAN_MOTION_DOT":"-0.00000949","MEAN_ELEMENT_THEORY":"SGP4","RCS_SIZE":"LARGE","EPOCH":"2022-06-23T10:22:09.997824","PERIOD":"95.593","INCLINATION":"53.0545","RA_OF_ASC_NODE":"80.6043"},{"TIME_SYSTEM":"UTC","NORAD_CAT_ID":"46052","ECCENTRICITY":"0.00015930","REF_FRAME":"TEME","SEMIMAJOR_AXIS":"6925.361","PERIAPSIS":"546.123","MEAN_MOTION_DDOT":"0.0000000000000","APOAPSIS":"548.329","OBJECT_TYPE":"PAYLOAD","MEAN_ANOMALY":"283.0140","FILE":"3500623","BSTAR":"0.00003421600000","REV_AT_EPOCH":"10428","CLASSIFICATION_TYPE":"U","COUNTRY_CODE":"US","MEAN_ELEMENT_THEORY":"SGP4","RCS_SIZE":"LARGE","EPOCH":"2022-06-23T16:23:06.058464","INCLINATION":"53.0567","PERIOD":"95.592","RA_OF_ASC_NODE":"79.4689","MEAN_MOTION_DOT":"0.00000228","GP_ID":"206690069","ARG_OF_PERICENTER":"77.1027","OBJECT_ID":"2020-055AB","MEAN_MOTION":"15.06395914","SITE":"AFETR","LAUNCH_DATE":"2020-08-07","ELEMENT_SET_NO":"999","EPHEMERIS_TYPE":"0","CENTER_NAME":"EARTH","TLE_LINE2":"2 46052  53.0567  79.4689 0001593  77.1027 283.0140 15.06395914104286","DECAY_DATE":null,"OBJECT_NAME":"STARLINK-1541","TLE_LINE1":"1 46052U 20055AB  22174.68270901  .00000228  00000-0  34216-4 0  9990"}];
